[{"OBJECT_NAME":"STARLINK-33735","OBJECT_ID":"2025-070Q","EPOCH":"2026-03-09T12:44:41.224416","MEAN_MOTION":15.27594983,"ECCENTRICITY":0.00016853,"INCLINATION":42.9978,"RA_OF_ASC_NODE":260.5626,"ARG_OF_PERICENTER":278.6437,"MEAN_ANOMALY":81.4224,"EPHEMERIS_TYPE":0,"CLASSIFICATION_TYPE":"U","NORAD_CAT_ID":63474,"ELEMENT_SET_NO":999,"REV_AT_EPOCH":5295,"BSTAR":0.0010211458,"MEAN_MOTION_DOT":0.00027957,"MEAN_MOTION_DDOT":0},{"OBJECT_NAME":"CZ-2D R\/B","OBJECT_ID":"2025-227B","EPOCH":"2026-03-09T22:11:26.043072","MEAN_MOTION":15.30393637,"ECCENTRICITY":0.00198129,"INCLINATION":80.1514,"RA_OF_ASC_NODE":267.3771,"ARG_OF_PERICENTER":270.3655,"MEAN_ANOMALY":89.5307,"EPHEMERIS_TYPE":0,"CLASSIFICATION_TYPE":"U","NORAD_CAT_ID":65946,"ELEMENT_SET_NO":999,"REV_AT_EPOCH":2254,"BSTAR":0.00032251975,"MEAN_MOTION_DOT":9.557e-5,"MEAN_MOTION_DDOT":0}]
